{"fetched_at":"2026-07-21T17:53:15.201Z","source":"https://celestrak.org/NORAD/elements/gp.php?GROUP=stations&FORMAT=JSON","constellation":"crewed-vehicles","records":[{"OBJECT_NAME":"SOYUZ-MS 28","OBJECT_ID":"2025-275A","EPOCH":"2026-07-21T04:27:10.178208","CLASSIFICATION_TYPE":"U","MEAN_MOTION":15.49071756,"ECCENTRICITY":0.00068493,"INCLINATION":51.6316,"RA_OF_ASC_NODE":131.8443,"ARG_OF_PERICENTER":320.6461,"MEAN_ANOMALY":39.4029,"EPHEMERIS_TYPE":0,"NORAD_CAT_ID":66664,"ELEMENT_SET_NO":999,"REV_AT_EPOCH":57611,"BSTAR":0.00011479289,"MEAN_MOTION_DOT":0.00005896,"MEAN_MOTION_DDOT":0},{"OBJECT_NAME":"CREW DRAGON 12","OBJECT_ID":"2026-031A","EPOCH":"2026-07-21T04:27:10.178208","CLASSIFICATION_TYPE":"U","MEAN_MOTION":15.49071756,"ECCENTRICITY":0.00068493,"INCLINATION":51.6316,"RA_OF_ASC_NODE":131.8443,"ARG_OF_PERICENTER":320.6461,"MEAN_ANOMALY":39.4029,"EPHEMERIS_TYPE":0,"NORAD_CAT_ID":67796,"ELEMENT_SET_NO":999,"REV_AT_EPOCH":57641,"BSTAR":0.00011479289,"MEAN_MOTION_DOT":0.00005896,"MEAN_MOTION_DDOT":0},{"OBJECT_NAME":"SOYUZ-MS 29","OBJECT_ID":"2026-162A","EPOCH":"2026-07-21T04:27:10.178208","CLASSIFICATION_TYPE":"U","MEAN_MOTION":15.49071756,"ECCENTRICITY":0.00068493,"INCLINATION":51.6316,"RA_OF_ASC_NODE":131.8443,"ARG_OF_PERICENTER":320.6461,"MEAN_ANOMALY":39.4029,"EPHEMERIS_TYPE":0,"NORAD_CAT_ID":100057,"ELEMENT_SET_NO":999,"REV_AT_EPOCH":57627,"BSTAR":0.00011479289,"MEAN_MOTION_DOT":0.00005896,"MEAN_MOTION_DDOT":0}]}
